ONEWEB-0545             
1 54647U 22166F   25290.81052508  .00000089  00000+0  18475-3 0  9994
2 54647  87.9168 292.3480 0001408  86.2847 273.8448 13.21812175139485
ONEWEB-0580             
1 54648U 22166G   25290.78405448  .00000044  00000+0  74823-4 0  9997
2 54648  87.9166 292.3520 0001621  80.6236 279.5081 13.21771958139520
ONEWEB-0582             
1 54649U 22166H   25290.44827088  .00000065  00000+0  12615-3 0  9992
2 54649  87.9167 292.4121 0001550  77.2855 282.8452 13.21752140139453
ONEWEB-0583             
1 54650U 22166J   25290.76242843 -.00000009  00000+0 -54501-4 0  9990
2 54650  87.9166 292.3750 0001743  89.6532 270.4801 13.21709401139503
ONEWEB-0584             
1 54651U 22166K   25290.78242020  .00000016  00000+0  65457-5 0  9999
2 54651  87.9166 292.3559 0001725  78.6321 281.5007 13.21775428139496
ONEWEB-0585             
1 54652U 22166L   25290.80729522  .00000100  00000+0  21002-3 0  9990
2 54652  87.9166 292.3363 0002000  91.4425 268.6938 13.21825998139504
ONEWEB-0586             
1 54653U 22166M   25290.82028059  .00000063  00000+0  12224-3 0  9994
2 54653  87.9168 292.3592 0001718  88.3789 271.7542 13.21776036139508
ONEWEB-0587             
1 54654U 22166N   25290.75431426  .00000052  00000+0  93997-4 0  9998
2 54654  87.9178 292.3226 0002219  95.4030 264.7357 13.21739216139650
